NOAA 15                 
1 25338U 98030A   23073.17204730  .00000382  00000+0  17725-3 0  9997
2 25338  98.6178 103.8057 0009630 226.4829 133.5552 14.26266420291714
